start=new Date('2021-10-16T00:00:00.000Z').valueOf();
sats=[{"INCLINATION":"70.0009","MEAN_MOTION_DDOT":"0.0000000000000","RA_OF_ASC_NODE":"37.4972","TIME_SYSTEM":"UTC","ARG_OF_PERICENTER":"288.6113","OBJECT_TYPE":"PAYLOAD","SEMIMAJOR_AXIS":"6737.697","COUNTRY_CODE":"US","REF_FRAME":"TEME","TLE_LINE1":"1 49148U 21082U   21288.91667824 -.00030354  00000-0 -25317-3 0  9991","OBJECT_NAME":"STARLINK-3048","DECAY_DATE":null,"LAUNCH_DATE":"2021-09-14","PERIOD":"91.733","MEAN_MOTION_DOT":"-0.00030354","MEAN_ELEMENT_THEORY":"SGP4","REV_AT_EPOCH":"366","GP_ID":"187281708","EPHEMERIS_TYPE":"0","APOAPSIS":"362.252","BSTAR":"-0.00025317000000","ELEMENT_SET_NO":"999","PERIAPSIS":"356.873","NORAD_CAT_ID":"49148","EPOCH":"2021-10-15T22:00:00.999936","SITE":"AFWTR","FILE":"3165217","TLE_LINE2":"2 49148  70.0009  37.4972 0003992 288.6113  57.0295 15.69768169  3669","CLASSIFICATION_TYPE":"U","RCS_SIZE":"LARGE","MEAN_MOTION":"15.69768169","CENTER_NAME":"EARTH","MEAN_ANOMALY":"57.0295","ECCENTRICITY":"0.00039920","OBJECT_ID":"2021-082U"},{"TIME_SYSTEM":"UTC","ARG_OF_PERICENTER":"289.4104","RA_OF_ASC_NODE":"37.4997","INCLINATION":"70.0016","MEAN_MOTION_DDOT":"0.0000000000000","REF_FRAME":"TEME","DECAY_DATE":null,"TLE_LINE1":"1 49149U 21082V   21288.91667824 -.00028288  00000-0 -23578-3 0  9992","OBJECT_NAME":"STARLINK-3053","COUNTRY_CODE":"US","SEMIMAJOR_AXIS":"6737.698","OBJECT_TYPE":"PAYLOAD","LAUNCH_DATE":"2021-09-14","PERIOD":"91.733","REV_AT_EPOCH":"366","MEAN_ELEMENT_THEORY":"SGP4","MEAN_MOTION_DOT":"-0.00028288","GP_ID":"187281934","SITE":"AFWTR","FILE":"3165217","EPOCH":"2021-10-15T22:00:00.999936","BSTAR":"-0.00023578000000","PERIAPSIS":"357.018","ELEMENT_SET_NO":"999","NORAD_CAT_ID":"49149","EPHEMERIS_TYPE":"0","APOAPSIS":"362.108","OBJECT_ID":"2021-082V","ECCENTRICITY":"0.00037770","MEAN_ANOMALY":"54.0900","MEAN_MOTION":"15.69767946","CENTER_NAME":"EARTH","CLASSIFICATION_TYPE":"U","TLE_LINE2":"2 49149  70.0016  37.4997 0003777 289.4104  54.0900 15.69767946  3667","RCS_SIZE":"LARGE"},{"LAUNCH_DATE":"2021-09-14","PERIOD":"91.733","RA_OF_ASC_NODE":"37.4905","TIME_SYSTEM":"UTC","ARG_OF_PERICENTER":"290.2010","MEAN_MOTION_DDOT":"0.0000000000000","INCLINATION":"69.9998","COUNTRY_CODE":"US","REF_FRAME":"TEME","OBJECT_NAME":"STARLINK-3104","TLE_LINE1":"1 49150U 21082W   21288.91667824 -.00044650  00000-0 -37397-3 0  9999","DECAY_DATE":null,"OBJECT_TYPE":"PAYLOAD","SEMIMAJOR_AXIS":"6737.706","EPOCH":"2021-10-15T22:00:00.999936","SITE":"AFWTR","FILE":"3165217","EPHEMERIS_TYPE":"0","APOAPSIS":"362.001","BSTAR":"-0.00037397000000","PERIAPSIS":"357.142","ELEMENT_SET_NO":"999","NORAD_CAT_ID":"49150","MEAN_ANOMALY":"59.6764","ECCENTRICITY":"0.00036060","OBJECT_ID":"2021-082W","TLE_LINE2":"2 49150  69.9998  37.4905 0003606 290.2010  59.6764 15.69765016  3666","CLASSIFICATION_TYPE":"U","RCS_SIZE":"LARGE","MEAN_MOTION":"15.69765016","CENTER_NAME":"EARTH","REV_AT_EPOCH":"366","MEAN_MOTION_DOT":"-0.00044650","MEAN_ELEMENT_THEORY":"SGP4","GP_ID":"187281483"},{"OBJECT_TYPE":"PAYLOAD","SEMIMAJOR_AXIS":"6737.717","COUNTRY_CODE":"US","TLE_LINE1":"1 49151U 21082X   21288.91667824 -.00033972  00000-0 -28378-3 0  9994","DECAY_DATE":null,"OBJECT_NAME":"STARLINK-3102","REF_FRAME":"TEME","MEAN_MOTION_DDOT":"0.0000000000000","INCLINATION":"69.9999","RA_OF_ASC_NODE":"37.4929","ARG_OF_PERICENTER":"289.2910","TIME_SYSTEM":"UTC","PERIOD":"91.734","LAUNCH_DATE":"2021-09-14","GP_ID":"187281596","MEAN_MOTION_DOT":"-0.00033972","MEAN_ELEMENT_THEORY":"SGP4","REV_AT_EPOCH":"366","RCS_SIZE":"LARGE","TLE_LINE2":"2 49151  69.9999  37.4929 0003765 289.2910  58.4338 15.69761422  3668","CLASSIFICATION_TYPE":"U","CENTER_NAME":"EARTH","MEAN_MOTION":"15.69761422","MEAN_ANOMALY":"58.4338","ECCENTRICITY":"0.00037650","OBJECT_ID":"2021-082X","APOAPSIS":"362.118","EPHEMERIS_TYPE":"0","NORAD_CAT_ID":"49151","PERIAPSIS":"357.045","ELEMENT_SET_NO":"999","BSTAR":"-0.00028378000000","EPOCH":"2021-10-15T22:00:00.999936","FILE":"3165217","SITE":"AFWTR"},{"MEAN_MOTION_DDOT":"0.0000000000000","INCLINATION":"70.0007","TIME_SYSTEM":"UTC","ARG_OF_PERICENTER":"288.3315","RA_OF_ASC_NODE":"37.4835","SEMIMAJOR_AXIS":"6737.706","OBJECT_TYPE":"PAYLOAD","REF_FRAME":"TEME","DECAY_DATE":null,"TLE_LINE1":"1 49152U 21082Y   21288.91667824 -.00029049  00000-0 -24219-3 0  9995","OBJECT_NAME":"STARLINK-3081","COUNTRY_CODE":"US","LAUNCH_DATE":"2021-09-14","PERIOD":"91.733","MEAN_ELEMENT_THEORY":"SGP4","MEAN_MOTION_DOT":"-0.00029049","REV_AT_EPOCH":"366","GP_ID":"187281371","BSTAR":"-0.00024219000000","PERIAPSIS":"356.780","NORAD_CAT_ID":"49152","ELEMENT_SET_NO":"999","EPHEMERIS_TYPE":"0","APOAPSIS":"362.361","SITE":"AFWTR","FILE":"3165217","EPOCH":"2021-10-15T22:00:00.999936","MEAN_MOTION":"15.69765259","CENTER_NAME":"EARTH","TLE_LINE2":"2 49152  70.0007  37.4835 0004142 288.3315  67.9116 15.69765259  3668","CLASSIFICATION_TYPE":"U","RCS_SIZE":"LARGE","OBJECT_ID":"2021-082Y","MEAN_ANOMALY":"67.9116","ECCENTRICITY":"0.00041420"},{"PERIOD":"91.732","LAUNCH_DATE":"2021-09-14","SEMIMAJOR_AXIS":"6737.649","OBJECT_TYPE":"PAYLOAD","OBJECT_NAME":"STARLINK-3072","TLE_LINE1":"1 49153U 21082Z   21288.91667824 -.00030618  00000-0 -25526-3 0  9992","DECAY_DATE":null,"REF_FRAME":"TEME","COUNTRY_CODE":"US","MEAN_MOTION_DDOT":"0.0000000000000","INCLINATION":"70.0009","ARG_OF_PERICENTER":"289.2109","TIME_SYSTEM":"UTC","RA_OF_ASC_NODE":"37.4894","CENTER_NAME":"EARTH","MEAN_MOTION":"15.69784976","RCS_SIZE":"LARGE","TLE_LINE2":"2 49153  70.0009  37.4894 0003323 289.2109  62.6768 15.69784976  3669","CLASSIFICATION_TYPE":"U","OBJECT_ID":"2021-082Z","MEAN_ANOMALY":"62.6768","ECCENTRICITY":"0.00033230","ELEMENT_SET_NO":"999","PERIAPSIS":"357.275","NORAD_CAT_ID":"49153","BSTAR":"-0.00025526000000","APOAPSIS":"361.753","EPHEMERIS_TYPE":"0","FILE":"3165217","SITE":"AFWTR","EPOCH":"2021-10-15T22:00:00.999936","GP_ID":"187282043","MEAN_ELEMENT_THEORY":"SGP4","MEAN_MOTION_DOT":"-0.00030618","REV_AT_EPOCH":"366"},{"GP_ID":"187281821","MEAN_MOTION_DOT":"-0.00130557","MEAN_ELEMENT_THEORY":"SGP4","REV_AT_EPOCH":"366","TLE_LINE2":"2 49154  70.0011  37.4813 0003901 290.1872  68.1179 15.69829831  3661","CLASSIFICATION_TYPE":"U","RCS_SIZE":"LARGE","MEAN_MOTION":"15.69829831","CENTER_NAME":"EARTH","MEAN_ANOMALY":"68.1179","ECCENTRICITY":"0.00039010","OBJECT_ID":"2021-082AA","EPHEMERIS_TYPE":"0","APOAPSIS":"362.014","BSTAR":"-0.00110510000000","NORAD_CAT_ID":"49154","PERIAPSIS":"356.758","ELEMENT_SET_NO":"999","EPOCH":"2021-10-15T22:00:00.999936","SITE":"AFWTR","FILE":"3165217","OBJECT_TYPE":"PAYLOAD","SEMIMAJOR_AXIS":"6737.521","COUNTRY_CODE":"US","REF_FRAME":"TEME","OBJECT_NAME":"STARLINK-3068","TLE_LINE1":"1 49154U 21082AA  21288.91667824 -.00130557  00000-0 -11051-2 0  9993","DECAY_DATE":null,"MEAN_MOTION_DDOT":"0.0000000000000","INCLINATION":"70.0011","RA_OF_ASC_NODE":"37.4813","TIME_SYSTEM":"UTC","ARG_OF_PERICENTER":"290.1872","PERIOD":"91.730","LAUNCH_DATE":"2021-09-14"},{"INCLINATION":"70.0018","MEAN_MOTION_DDOT":"0.0000000000000","RA_OF_ASC_NODE":"37.4857","ARG_OF_PERICENTER":"287.0065","TIME_SYSTEM":"UTC","OBJECT_TYPE":"PAYLOAD","SEMIMAJOR_AXIS":"6737.687","COUNTRY_CODE":"US","TLE_LINE1":"1 49155U 21082AB  21288.91667824 -.00086035  00000-0 -72561-3 0  9999","DECAY_DATE":null,"OBJECT_NAME":"STARLINK-3060","REF_FRAME":"TEME","LAUNCH_DATE":"2021-09-14","PERIOD":"91.733","MEAN_MOTION_DOT":"-0.00086035","MEAN_ELEMENT_THEORY":"SGP4","REV_AT_EPOCH":"366","GP_ID":"187281259","APOAPSIS":"361.958","EPHEMERIS_TYPE":"0","PERIAPSIS":"357.146","ELEMENT_SET_NO":"999","NORAD_CAT_ID":"49155","BSTAR":"-0.00072561000000","EPOCH":"2021-10-15T22:00:00.999936","FILE":"3165217","SITE":"AFWTR","RCS_SIZE":"LARGE","TLE_LINE2":"2 49155  70.0018  37.4857 0003571 287.0065  67.1466 15.69771795  3662","CLASSIFICATION_TYPE":"U","CENTER_NAME":"EARTH","MEAN_MOTION":"15.69771795","MEAN_ANOMALY":"67.1466","ECCENTRICITY":"0.00035710","OBJECT_ID":"2021-082AB"},{"FILE":"3165217","SITE":"AFWTR","EPOCH":"2021-10-15T22:00:00.999936","PERIAPSIS":"356.966","ELEMENT_SET_NO":"999","NORAD_CAT_ID":"49156","BSTAR":"-0.00024816000000","APOAPSIS":"362.235","EPHEMERIS_TYPE":"0","OBJECT_ID":"2021-082AC","MEAN_ANOMALY":"76.5561","ECCENTRICITY":"0.00039100","CENTER_NAME":"EARTH","MEAN_MOTION":"15.69754896","RCS_SIZE":"LARGE","TLE_LINE2":"2 49156  70.0018  37.4733 0003910 288.2071  76.5561 15.69754896  3666","CLASSIFICATION_TYPE":"U","REV_AT_EPOCH":"366","MEAN_ELEMENT_THEORY":"SGP4","MEAN_MOTION_DOT":"-0.00029742","GP_ID":"187281709","LAUNCH_DATE":"2021-09-14","PERIOD":"91.734","ARG_OF_PERICENTER":"288.2071","TIME_SYSTEM":"UTC","RA_OF_ASC_NODE":"37.4733","INCLINATION":"70.0018","MEAN_MOTION_DDOT":"0.0000000000000","OBJECT_NAME":"STARLINK-3085","TLE_LINE1":"1 49156U 21082AC  21288.91667824 -.00029742  00000-0 -24816-3 0  9992","DECAY_DATE":null,"REF_FRAME":"TEME","COUNTRY_CODE":"US","SEMIMAJOR_AXIS":"6737.735","OBJECT_TYPE":"PAYLOAD"},{"GP_ID":"187281935","REV_AT_EPOCH":"366","MEAN_MOTION_DOT":"-0.00028286","MEAN_ELEMENT_THEORY":"SGP4","MEAN_ANOMALY":"72.7784","ECCENTRICITY":"0.00039110","OBJECT_ID":"2021-082AD","RCS_SIZE":"LARGE","CLASSIFICATION_TYPE":"U","TLE_LINE2":"2 49157  70.0007  37.4786 0003911 287.7278  72.7784 15.69773116  3668","CENTER_NAME":"EARTH","MEAN_MOTION":"15.69773116","EPOCH":"2021-10-15T22:00:00.999936","FILE":"3165217","SITE":"AFWTR","APOAPSIS":"362.183","EPHEMERIS_TYPE":"0","NORAD_CAT_ID":"49157","PERIAPSIS":"356.913","ELEMENT_SET_NO":"999","BSTAR":"-0.00023570000000","COUNTRY_CODE":"US","TLE_LINE1":"1 49157U 21082AD  21288.91667824 -.00028286  00000-0 -23570-3 0  9991","DECAY_DATE":null,"OBJECT_NAME":"STARLINK-3051","REF_FRAME":"TEME","OBJECT_TYPE":"PAYLOAD","SEMIMAJOR_AXIS":"6737.683","RA_OF_ASC_NODE":"37.4786","ARG_OF_PERICENTER":"287.7278","TIME_SYSTEM":"UTC","INCLINATION":"70.0007","MEAN_MOTION_DDOT":"0.0000000000000","PERIOD":"91.733","LAUNCH_DATE":"2021-09-14"}];
